start=new Date('2022-01-09T00:00:00.000Z').valueOf();
sats=[{"EPOCH":"2022-01-08T12:52:50.933568","EPHEMERIS_TYPE":"0","APOAPSIS":"548.652","ELEMENT_SET_NO":"999","MEAN_ANOMALY":"297.6569","REF_FRAME":"TEME","PERIOD":"95.593","RCS_SIZE":"LARGE","ARG_OF_PERICENTER":"62.4627","OBJECT_ID":"2020-074R","OBJECT_NAME":"STARLINK-1923","FILE":"3267276","CLASSIFICATION_TYPE":"U","RA_OF_ASC_NODE":"310.3361","ECCENTRICITY":"0.00020470","LAUNCH_DATE":"2020-10-24","REV_AT_EPOCH":"6740","MEAN_MOTION_DOT":"0.00000272","INCLINATION":"53.0550","MEAN_MOTION_DDOT":"0.0000000000000","MEAN_ELEMENT_THEORY":"SGP4","OBJECT_TYPE":"PAYLOAD","DECAY_DATE":null,"CENTER_NAME":"EARTH","TLE_LINE2":"2 46754  53.0550 310.3361 0002047  62.4627 297.6569 15.06393287 67408","NORAD_CAT_ID":"46754","PERIAPSIS":"545.817","MEAN_MOTION":"15.06393287","SEMIMAJOR_AXIS":"6925.369","GP_ID":"193460238","SITE":"AFETR","TIME_SYSTEM":"UTC","TLE_LINE1":"1 46754U 20074R   22008.53670062  .00000272  00000-0  37186-4 0  9990","BSTAR":"0.00003718600000","COUNTRY_CODE":"US"},{"MEAN_ANOMALY":"299.4322","EPOCH":"2022-01-08T13:00:08.437248","EPHEMERIS_TYPE":"0","APOAPSIS":"548.504","ELEMENT_SET_NO":"999","ARG_OF_PERICENTER":"60.6853","OBJECT_ID":"2020-074S","REF_FRAME":"TEME","PERIOD":"95.592","RCS_SIZE":"LARGE","RA_OF_ASC_NODE":"315.3177","ECCENTRICITY":"0.00018640","FILE":"3267276","OBJECT_NAME":"STARLINK-1924","CLASSIFICATION_TYPE":"U","LAUNCH_DATE":"2020-10-24","REV_AT_EPOCH":"6733","MEAN_MOTION_DOT":"-0.00000186","DECAY_DATE":null,"CENTER_NAME":"EARTH","INCLINATION":"53.0548","MEAN_MOTION_DDOT":"0.0000000000000","MEAN_ELEMENT_THEORY":"SGP4","OBJECT_TYPE":"PAYLOAD","PERIAPSIS":"545.923","TLE_LINE2":"2 46755  53.0548 315.3177 0001864  60.6853 299.4322 15.06399988 67336","NORAD_CAT_ID":"46755","SEMIMAJOR_AXIS":"6925.349","GP_ID":"193460990","SITE":"AFETR","MEAN_MOTION":"15.06399988","COUNTRY_CODE":"US","TIME_SYSTEM":"UTC","BSTAR":"0.00000640090000","TLE_LINE1":"1 46755U 20074S   22008.54176432 -.00000186  00000-0  64009-5 0  9994"},{"TLE_LINE1":"1 46756U 20074T   22008.66613759  .00000428  00000-0  47660-4 0  9997","BSTAR":"0.00004766000000","TIME_SYSTEM":"UTC","COUNTRY_CODE":"US","MEAN_MOTION":"15.06402721","GP_ID":"193491572","SITE":"AFETR","SEMIMAJOR_AXIS":"6925.340","NORAD_CAT_ID":"46756","TLE_LINE2":"2 46756  53.0572 314.7550 0001784  71.2301 288.8882 15.06402721 67354","PERIAPSIS":"545.970","OBJECT_TYPE":"PAYLOAD","MEAN_ELEMENT_THEORY":"SGP4","MEAN_MOTION_DDOT":"0.0000000000000","INCLINATION":"53.0572","CENTER_NAME":"EARTH","DECAY_DATE":null,"MEAN_MOTION_DOT":"0.00000428","REV_AT_EPOCH":"6735","LAUNCH_DATE":"2020-10-24","CLASSIFICATION_TYPE":"U","FILE":"3267514","OBJECT_NAME":"STARLINK-1925","ECCENTRICITY":"0.00017840","RA_OF_ASC_NODE":"314.7550","RCS_SIZE":"LARGE","PERIOD":"95.592","REF_FRAME":"TEME","OBJECT_ID":"2020-074T","ARG_OF_PERICENTER":"71.2301","ELEMENT_SET_NO":"999","EPHEMERIS_TYPE":"0","APOAPSIS":"548.441","EPOCH":"2022-01-08T15:59:14.287776","MEAN_ANOMALY":"288.8882"},{"ARG_OF_PERICENTER":"64.2204","OBJECT_ID":"2020-074U","RCS_SIZE":"LARGE","PERIOD":"95.592","REF_FRAME":"TEME","MEAN_ANOMALY":"295.8978","EPOCH":"2022-01-08T19:52:46.447968","ELEMENT_SET_NO":"999","APOAPSIS":"548.498","EPHEMERIS_TYPE":"0","MEAN_MOTION_DOT":"0.00002309","REV_AT_EPOCH":"6737","LAUNCH_DATE":"2020-10-24","ECCENTRICITY":"0.00018790","RA_OF_ASC_NODE":"314.0440","CLASSIFICATION_TYPE":"U","FILE":"3267514","OBJECT_NAME":"STARLINK-1926","PERIAPSIS":"545.895","NORAD_CAT_ID":"46757","TLE_LINE2":"2 46757  53.0561 314.0440 0001879  64.2204 295.8978 15.06405484 67378","DECAY_DATE":null,"CENTER_NAME":"EARTH","INCLINATION":"53.0561","MEAN_MOTION_DDOT":"0.0000000000000","OBJECT_TYPE":"PAYLOAD","MEAN_ELEMENT_THEORY":"SGP4","COUNTRY_CODE":"US","TLE_LINE1":"1 46757U 20074U   22008.82831537  .00002309  00000-0  17387-3 0  9994","BSTAR":"0.00017387000000","TIME_SYSTEM":"UTC","SEMIMAJOR_AXIS":"6925.332","GP_ID":"193490320","SITE":"AFETR","MEAN_MOTION":"15.06405484"},{"RCS_SIZE":"LARGE","PERIOD":"95.592","REF_FRAME":"TEME","OBJECT_ID":"2020-074V","ARG_OF_PERICENTER":"58.1054","ELEMENT_SET_NO":"999","APOAPSIS":"548.568","EPHEMERIS_TYPE":"0","EPOCH":"2022-01-08T06:11:26.316672","MEAN_ANOMALY":"302.0124","REV_AT_EPOCH":"6729","MEAN_MOTION_DOT":"0.00001341","LAUNCH_DATE":"2020-10-24","CLASSIFICATION_TYPE":"U","OBJECT_NAME":"STARLINK-1928","FILE":"3267276","ECCENTRICITY":"0.00019420","RA_OF_ASC_NODE":"316.6022","NORAD_CAT_ID":"46758","TLE_LINE2":"2 46758  53.0542 316.6022 0001942  58.1054 302.0124 15.06397003 67290","PERIAPSIS":"545.878","MEAN_ELEMENT_THEORY":"SGP4","OBJECT_TYPE":"PAYLOAD","INCLINATION":"53.0542","MEAN_MOTION_DDOT":"0.0000000000000","CENTER_NAME":"EARTH","DECAY_DATE":null,"TLE_LINE1":"1 46758U 20074V   22008.25794348  .00001341  00000-0  10890-3 0  9997","BSTAR":"0.00010890000000","TIME_SYSTEM":"UTC","COUNTRY_CODE":"US","MEAN_MOTION":"15.06397003","SITE":"AFETR","GP_ID":"193459738","SEMIMAJOR_AXIS":"6925.358"},{"RCS_SIZE":"LARGE","PERIOD":"95.592","REF_FRAME":"TEME","OBJECT_ID":"2020-074W","ARG_OF_PERICENTER":"64.1943","ELEMENT_SET_NO":"999","APOAPSIS":"548.505","EPHEMERIS_TYPE":"0","EPOCH":"2022-01-08T20:24:39.934080","MEAN_ANOMALY":"295.9237","REV_AT_EPOCH":"6723","MEAN_MOTION_DOT":"0.00001245","LAUNCH_DATE":"2020-10-24","CLASSIFICATION_TYPE":"U","FILE":"3267514","OBJECT_NAME":"STARLINK-1833","ECCENTRICITY":"0.00018540","RA_OF_ASC_NODE":"323.9232","NORAD_CAT_ID":"46759","TLE_LINE2":"2 46759  53.0563 323.9232 0001854  64.1943 295.9237 15.06397421 67237","PERIAPSIS":"545.938","MEAN_ELEMENT_THEORY":"SGP4","OBJECT_TYPE":"PAYLOAD","INCLINATION":"53.0563","MEAN_MOTION_DDOT":"0.0000000000000","CENTER_NAME":"EARTH","DECAY_DATE":null,"TLE_LINE1":"1 46759U 20074W   22008.85046220  .00001245  00000-0  10250-3 0  9996","BSTAR":"0.00010250000000","TIME_SYSTEM":"UTC","COUNTRY_CODE":"US","MEAN_MOTION":"15.06397421","GP_ID":"193491322","SITE":"AFETR","SEMIMAJOR_AXIS":"6925.356"},{"PERIAPSIS":"545.899","TLE_LINE2":"2 46760  53.0539 326.5577 0001942  62.6810 297.4377 15.06390158 67150","NORAD_CAT_ID":"46760","DECAY_DATE":null,"CENTER_NAME":"EARTH","MEAN_MOTION_DDOT":"0.0000000000000","INCLINATION":"53.0539","MEAN_ELEMENT_THEORY":"SGP4","OBJECT_TYPE":"PAYLOAD","COUNTRY_CODE":"US","TIME_SYSTEM":"UTC","TLE_LINE1":"1 46760U 20074X   22008.26440118 -.00000424  00000-0 -95542-5 0  9996","BSTAR":"-0.00000955420000","SEMIMAJOR_AXIS":"6925.379","SITE":"AFETR","GP_ID":"193460727","MEAN_MOTION":"15.06390158","ARG_OF_PERICENTER":"62.6810","OBJECT_ID":"2020-074X","REF_FRAME":"TEME","PERIOD":"95.593","RCS_SIZE":"LARGE","MEAN_ANOMALY":"297.4377","EPOCH":"2022-01-08T06:20:44.261952","EPHEMERIS_TYPE":"0","APOAPSIS":"548.589","ELEMENT_SET_NO":"999","LAUNCH_DATE":"2020-10-24","REV_AT_EPOCH":"6715","MEAN_MOTION_DOT":"-0.00000424","RA_OF_ASC_NODE":"326.5577","ECCENTRICITY":"0.00019420","FILE":"3267276","OBJECT_NAME":"STARLINK-1896","CLASSIFICATION_TYPE":"U"},{"RA_OF_ASC_NODE":"324.0093","ECCENTRICITY":"0.00018420","OBJECT_NAME":"STARLINK-1902","FILE":"3267514","CLASSIFICATION_TYPE":"U","LAUNCH_DATE":"2020-10-24","MEAN_MOTION_DOT":"0.00001563","REV_AT_EPOCH":"6722","MEAN_ANOMALY":"303.3197","EPOCH":"2022-01-08T16:12:07.209216","EPHEMERIS_TYPE":"0","APOAPSIS":"535.983","ELEMENT_SET_NO":"999","ARG_OF_PERICENTER":"56.7970","OBJECT_ID":"2020-074AA","REF_FRAME":"TEME","RCS_SIZE":"LARGE","PERIOD":"95.333","SEMIMAJOR_AXIS":"6912.845","GP_ID":"193489820","SITE":"AFETR","MEAN_MOTION":"15.10489016","COUNTRY_CODE":"US","TIME_SYSTEM":"UTC","TLE_LINE1":"1 46763U 20074AA  22008.67508344  .00001563  00000-0  11142-3 0  9995","BSTAR":"0.00011142000000","DECAY_DATE":null,"CENTER_NAME":"EARTH","MEAN_MOTION_DDOT":"0.0000000000000","INCLINATION":"53.0545","OBJECT_TYPE":"PAYLOAD","MEAN_ELEMENT_THEORY":"SGP4","PERIAPSIS":"533.436","TLE_LINE2":"2 46763  53.0545 324.0093 0001842  56.7970 303.3197 15.10489016 67228","NORAD_CAT_ID":"46763"},{"GP_ID":"193460239","SITE":"AFETR","SEMIMAJOR_AXIS":"6925.343","MEAN_MOTION":"15.06401725","COUNTRY_CODE":"US","BSTAR":"0.00013401000000","TLE_LINE1":"1 46764U 20074AB  22008.58875293  .00001715  00000-0  13401-3 0  9995","TIME_SYSTEM":"UTC","CENTER_NAME":"EARTH","DECAY_DATE":null,"OBJECT_TYPE":"PAYLOAD","MEAN_ELEMENT_THEORY":"SGP4","MEAN_MOTION_DDOT":"0.0000000000000","INCLINATION":"53.0546","PERIAPSIS":"545.960","NORAD_CAT_ID":"46764","TLE_LINE2":"2 46764  53.0546 325.0947 0001803  59.9908 300.1260 15.06401725 67202","ECCENTRICITY":"0.00018030","RA_OF_ASC_NODE":"325.0947","CLASSIFICATION_TYPE":"U","FILE":"3267276","OBJECT_NAME":"STARLINK-1903","REV_AT_EPOCH":"6720","MEAN_MOTION_DOT":"0.00001715","LAUNCH_DATE":"2020-10-24","MEAN_ANOMALY":"300.1260","ELEMENT_SET_NO":"999","EPHEMERIS_TYPE":"0","APOAPSIS":"548.457","EPOCH":"2022-01-08T14:07:48.253152","OBJECT_ID":"2020-074AB","ARG_OF_PERICENTER":"59.9908","RCS_SIZE":"LARGE","PERIOD":"95.592","REF_FRAME":"TEME"},{"TLE_LINE2":"2 46765  53.0560 323.9755 0001814  66.6950 293.4230 15.06402087 67233","NORAD_CAT_ID":"46765","PERIAPSIS":"545.951","INCLINATION":"53.0560","MEAN_MOTION_DDOT":"0.0000000000000","MEAN_ELEMENT_THEORY":"SGP4","OBJECT_TYPE":"PAYLOAD","DECAY_DATE":null,"CENTER_NAME":"EARTH","TIME_SYSTEM":"UTC","TLE_LINE1":"1 46765U 20074AC  22008.84308555  .00001727  00000-0  13479-3 0  9995","BSTAR":"0.00013479000000","COUNTRY_CODE":"US","MEAN_MOTION":"15.06402087","SEMIMAJOR_AXIS":"6925.342","GP_ID":"193490822","SITE":"AFETR","REF_FRAME":"TEME","PERIOD":"95.592","RCS_SIZE":"LARGE","ARG_OF_PERICENTER":"66.6950","OBJECT_ID":"2020-074AC","EPOCH":"2022-01-08T20:14:02.591520","APOAPSIS":"548.463","EPHEMERIS_TYPE":"0","ELEMENT_SET_NO":"999","MEAN_ANOMALY":"293.4230","LAUNCH_DATE":"2020-10-24","REV_AT_EPOCH":"6723","MEAN_MOTION_DOT":"0.00001727","FILE":"3267514","OBJECT_NAME":"STARLINK-1906","CLASSIFICATION_TYPE":"U","RA_OF_ASC_NODE":"323.9755","ECCENTRICITY":"0.00018140"}];
